OBJECT_NAME,OBJECT_ID,EPOCH,MEAN_MOTION,ECCENTRICITY,INCLINATION,RA_OF_ASC_NODE,ARG_OF_PERICENTER,MEAN_ANOMALY,EPHEMERIS_TYPE,CLASSIFICATION_TYPE,NORAD_CAT_ID,ELEMENT_SET_NO,REV_AT_EPOCH,BSTAR,MEAN_MOTION_DOT,MEAN_MOTION_DDOT
SWARM A,2013-067B,2026-06-10T06:01:25.069440,15.50813708,.00029847,87.3332,58.8176,93.6839,266.4763,0,U,39452,999,70517,.17120033E-3,.991E-4,0
SWARM C,2013-067C,2026-06-10T06:01:15.020256,15.50816218,.0002969,87.3332,57.3991,93.0070,267.1530,0,U,39453,999,70513,.17101199E-3,.99E-4,0
BRITE-CA1 (TORONTO),2014-033L,2026-06-10T04:12:32.736960,14.72666999,.00773914,97.9730,290.2329,299.8614,59.4918,0,U,40020,999,64118,.98294147E-4,.602E-5,0
OCO 2,2014-035A,2026-06-10T05:16:34.432608,14.57105535,.00014899,98.2017,102.6191,86.7722,273.3647,0,U,40059,999,63503,.85714701E-4,.341E-5,0
BRITE-PL2 (HEWELIUSZ),2014-049B,2026-06-09T19:23:21.725376,14.94571041,.00151621,97.9090,272.7516,130.3835,229.8711,0,U,40119,999,64034,.16872442E-3,.1769E-4,0
MMS 1,2015-011A,2026-06-10T08:00:01.999872,0.28331293,.83237477,72.0724,348.8741,167.3343,319.1217,0,U,40482,999,139,0,.1E-7,0
MMS 2,2015-011B,2026-06-10T08:00:01.999872,0.28331300,.83245321,72.0726,348.8762,167.3400,319.1101,0,U,40483,999,139,0,.2E-7,0
MMS 3,2015-011C,2026-06-10T08:00:01.999872,0.28331268,.83237171,72.0757,348.8808,167.3345,319.1063,0,U,40484,999,139,0,.2E-7,0
MMS 4,2015-011D,2026-06-10T08:00:01.999872,0.28331260,.83233235,72.0718,348.8765,167.3423,319.0946,0,U,40485,999,139,0,.2E-7,0
ASTROSAT,2015-052A,2026-06-09T18:12:25.199136,14.82495179,.0008541,5.9953,208.8328,288.1197,71.8001,0,U,40930,999,57872,.10301E-3,.1518E-4,0
DAMPE,2015-078A,2026-06-10T07:18:48.391200,15.30768331,.00137676,97.4563,166.7382,98.4584,261.8217,0,U,41173,999,58349,.47726982E-4,.1344E-4,0
PISAT,2016-059B,2026-06-10T06:20:36.246624,14.68971671,.0027883,97.8178,162.0146,225.5900,134.3023,0,U,41784,999,51872,.14543419E-3,.809E-5,0
HXMT (HUIYAN),2017-034A,2026-06-10T07:02:19.934592,15.18431383,.00301961,43.0133,221.4275,101.6771,258.7469,0,U,42758,999,49661,.20523288E-3,.4108E-4,0
FLYING LAPTOP,2017-042G,2026-06-10T06:04:21.234720,15.01099954,.0019271,97.4660,317.0547,144.3500,215.9016,0,U,42831,999,48541,.24142446E-3,.3044E-4,0
ZHANGHENG 1-01 (CSES-1),2018-015C,2026-06-10T07:06:14.615136,15.20723234,.00171041,97.6864,326.8178,292.3534,67.5888,0,U,43194,999,46359,.2822253E-3,.6158E-4,0
SALSAT,2020-068K,2026-06-10T06:39:18.129024,15.29700288,.00086487,97.8853,163.9217,336.5873,23.4971,0,U,46495,999,31430,.26694921E-3,.7605E-4,0
IXPE,2021-121A,2026-06-10T08:00:01.999872,15.10188338,.00074864,0.2321,9.2445,333.0505,55.1539,0,U,49954,999,543,.52401674E-3,.9749E-4,0
SMILE,2026-109A,2026-05-24T15:40:35.120928,14.57062785,.00091232,70.0007,229.2745,259.5159,100.4951,0,U,69123,999,80,-.42378883E-3,-.1976E-4,0
