SWARM A                 
1 39452U 13067B   26161.25098460  .00009910  00000+0  17120-3 0  9992
2 39452  87.3332  58.8176 0002984  93.6839 266.4763 15.50813708705179
SWARM C                 
1 39453U 13067C   26161.25086829  .00009900  00000+0  17101-3 0  9997
2 39453  87.3332  57.3991 0002969  93.0070 267.1530 15.50816218705138
BRITE-CA1 (TORONTO)     
1 40020U 14033L   26161.17537890  .00000602  00000+0  98294-4 0  9996
2 40020  97.9730 290.2329 0077391 299.8614  59.4918 14.72666999641181
OCO 2                   
1 40059U 14035A   26161.21984297  .00000341  00000+0  85715-4 0  9996
2 40059  98.2017 102.6191 0001489  86.7722 273.3647 14.57105535635036
BRITE-PL2 (HEWELIUSZ)   
1 40119U 14049B   26160.80789034  .00001769  00000+0  16872-3 0  9996
2 40119  97.9090 272.7516 0015162 130.3835 229.8711 14.94571041640342
MMS 1                   
1 40482U 15011A   26161.33335648  .00000001  00000+0  00000+0 0  9996
2 40482  72.0724 348.8741 8323747 167.3343 319.1217  0.28331293  1396
MMS 2                   
1 40483U 15011B   26161.33335648  .00000002  00000+0  00000+0 0  9998
2 40483  72.0726 348.8762 8324532 167.3400 319.1101  0.28331300  1390
MMS 3                   
1 40484U 15011C   26161.33335648  .00000002  00000+0  00000+0 0  9999
2 40484  72.0757 348.8808 8323717 167.3345 319.1063  0.28331268  1398
MMS 4                   
1 40485U 15011D   26161.33335648  .00000002  00000+0  00000+0 0  9990
2 40485  72.0718 348.8765 8323323 167.3423 319.0946  0.28331260  1399
ASTROSAT                
1 40930U 15052A   26160.75862499  .00001518  00000+0  10301-3 0  9996
2 40930   5.9953 208.8328 0008541 288.1197  71.8001 14.82495179578720
DAMPE                   
1 41173U 15078A   26161.30472675  .00001344  00000+0  47727-4 0  9999
2 41173  97.4563 166.7382 0013767  98.4584 261.8217 15.30768331583490
PISAT                   
1 41784U 16059B   26161.26430841  .00000809  00000+0  14543-3 0  9995
2 41784  97.8178 162.0146 0027883 225.5900 134.3023 14.68971671518726
HXMT (HUIYAN)           
1 42758U 17034A   26161.29328628  .00004108  00000+0  20523-3 0  9994
2 42758  43.0133 221.4275 0030196 101.6771 258.7469 15.18431383496611
FLYING LAPTOP           
1 42831U 17042G   26161.25302355  .00003044  00000+0  24142-3 0  9999
2 42831  97.4660 317.0547 0019271 144.3500 215.9016 15.01099954485415
ZHANGHENG 1-01 (CSES-1) 
1 43194U 18015C   26161.29600249  .00006158  00000+0  28223-3 0  9993
2 43194  97.6864 326.8178 0017104 292.3534  67.5888 15.20723234463597
SALSAT                  
1 46495U 20068K   26161.27729316  .00007605  00000+0  26695-3 0  9995
2 46495  97.8853 163.9217 0008648 336.5873  23.4971 15.29700288314309
IXPE                    
1 49954U 21121A   26161.33335648  .00009749  00000+0  52402-3 0  9993
2 49954   0.2321   9.2445 0007486 333.0505  55.1539 15.10188338  5437
SMILE                   
1 69123U 26109A   26144.65318427 -.00001976  00000+0 -42379-3 0  9994
2 69123  70.0007 229.2745 0009123 259.5159 100.4951 14.57062785   802
